IRIDIUM 33              
1 24946U 97051C   26066.14604873  .00000376  00000+0  12491-3 0  9995
2 24946  86.3878  32.7655 0006135 310.3918  49.6742 14.35099365490454
IRIDIUM 33 DEB          
1 33773U 97051L   26066.15508190  .00001399  00000+0  40795-3 0  9993
2 33773  86.4033  24.7957 0009136 227.9044 132.1381 14.43471986895659
IRIDIUM 33 DEB          
1 33775U 97051N   26065.83193227  .00002144  00000+0  65096-3 0  9990
2 33775  86.3671  13.6388 0010797 243.7071 148.5020 14.41747224893528
IRIDIUM 33 DEB          
1 33776U 97051P   26065.98422207  .00001112  00000+0  35845-3 0  9993
2 33776  86.4023  45.3636 0012334 284.5600 133.8639 14.38399878892930
IRIDIUM 33 DEB          
1 33777U 97051Q   26066.16141484  .00003473  00000+0  77961-3 0  9997
2 33777  86.3834 358.4614 0006579 355.6706   4.4444 14.56308803897621
IRIDIUM 33 DEB          
1 33850U 97051T   26066.07706400  .00001551  00000+0  46258-3 0  9994
2 33850  86.3467 353.9163 0008874 252.0783 167.2080 14.42474338893687
IRIDIUM 33 DEB          
1 33853U 97051W   26066.16622340  .00002632  00000+0  14822-2 0  9999
2 33853  85.9997 312.7934 0210183 337.9617 118.2918 13.99572226865264
IRIDIUM 33 DEB          
1 33860U 97051AD  26065.30015703  .00009608  00000+0  16337-2 0  9994
2 33860  86.3874 350.2131 0011597  56.8355  61.6910 14.68986715899484
IRIDIUM 33 DEB          
1 33862U 97051AF  26066.08839580  .00013325  00000+0  20873-2 0  9990
2 33862  86.4130   0.2728 0050584 132.0369 244.9343 14.71751658900633
IRIDIUM 33 DEB          
1 33866U 97051AK  26065.94234161  .00003387  00000+0  13321-2 0  9999
2 33866  86.2993  57.3802 0110683 251.5527 167.2950 14.25720603880103
IRIDIUM 33 DEB          
1 33870U 97051AP  26065.89203280  .00003364  00000+0  93021-3 0  9997
2 33870  86.3779  22.1622 0018161 264.1853 117.4181 14.46381046893532
IRIDIUM 33 DEB          
1 33881U 97051BA  26066.00737443  .00017487  00000+0  36505-2 0  9990
2 33881  86.3822  70.0346 0052471 251.4110 135.6613 14.58932417887289
IRIDIUM 33 DEB          
1 33884U 97051BD  26066.18967514  .00017463  00000+0  22887-2 0  9998
2 33884  86.3714 331.6369 0013552  25.7450  97.0143 14.80189917900952
IRIDIUM 33 DEB          
1 33886U 97051BF  26065.97887757  .00000772  00000+0  25801-3 0  9991
2 33886  86.3842  31.7462 0013273 339.9442  86.5845 14.36164253892611
IRIDIUM 33 DEB          
1 33887U 97051BG  26066.21246836  .00000519  00000+0  16732-3 0  9999
2 33887  86.3079 327.0133 0005407 344.7127 138.7302 14.37321442893787
IRIDIUM 33 DEB          
1 33953U 97051BN  26066.10568207  .00005982  00000+0  13425-2 0  9994
2 33953  86.3888  17.1266 0015844 165.2324 209.6891 14.56360620895318
