[{"OBJECT_NAME":"IRIDIUM 33","OBJECT_ID":"1997-051C","EPOCH":"2026-03-07T03:30:18.610272","MEAN_MOTION":14.35099365,"ECCENTRICITY":0.0006135,"INCLINATION":86.3878,"RA_OF_ASC_NODE":32.7655,"ARG_OF_PERICENTER":310.3918,"MEAN_ANOMALY":49.6742,"EPHEMERIS_TYPE":0,"CLASSIFICATION_TYPE":"U","NORAD_CAT_ID":24946,"ELEMENT_SET_NO":999,"REV_AT_EPOCH":49045,"BSTAR":0.00012491,"MEAN_MOTION_DOT":3.76e-6,"MEAN_MOTION_DDOT":0},{"OBJECT_NAME":"IRIDIUM 33 DEB","OBJECT_ID":"1997-051L","EPOCH":"2026-03-07T03:43:19.076160","MEAN_MOTION":14.43471986,"ECCENTRICITY":0.0009136,"INCLINATION":86.4033,"RA_OF_ASC_NODE":24.7957,"ARG_OF_PERICENTER":227.9044,"MEAN_ANOMALY":132.1381,"EPHEMERIS_TYPE":0,"CLASSIFICATION_TYPE":"U","NORAD_CAT_ID":33773,"ELEMENT_SET_NO":999,"REV_AT_EPOCH":89565,"BSTAR":0.00040795,"MEAN_MOTION_DOT":1.399e-5,"MEAN_MOTION_DDOT":0},{"OBJECT_NAME":"IRIDIUM 33 DEB","OBJECT_ID":"1997-051N","EPOCH":"2026-03-06T19:57:58.948128","MEAN_MOTION":14.41747224,"ECCENTRICITY":0.0010797,"INCLINATION":86.3671,"RA_OF_ASC_NODE":13.6388,"ARG_OF_PERICENTER":243.7071,"MEAN_ANOMALY":148.502,"EPHEMERIS_TYPE":0,"CLASSIFICATION_TYPE":"U","NORAD_CAT_ID":33775,"ELEMENT_SET_NO":999,"REV_AT_EPOCH":89352,"BSTAR":0.00065096,"MEAN_MOTION_DOT":2.144e-5,"MEAN_MOTION_DDOT":0},{"OBJECT_NAME":"IRIDIUM 33 DEB","OBJECT_ID":"1997-051P","EPOCH":"2026-03-06T23:37:16.786848","MEAN_MOTION":14.38399878,"ECCENTRICITY":0.0012334,"INCLINATION":86.4023,"RA_OF_ASC_NODE":45.3636,"ARG_OF_PERICENTER":284.56,"MEAN_ANOMALY":133.8639,"EPHEMERIS_TYPE":0,"CLASSIFICATION_TYPE":"U","NORAD_CAT_ID":33776,"ELEMENT_SET_NO":999,"REV_AT_EPOCH":89293,"BSTAR":0.00035845,"MEAN_MOTION_DOT":1.112e-5,"MEAN_MOTION_DDOT":0},{"OBJECT_NAME":"IRIDIUM 33 DEB","OBJECT_ID":"1997-051Q","EPOCH":"2026-03-07T03:52:26.242176","MEAN_MOTION":14.56308803,"ECCENTRICITY":0.0006579,"INCLINATION":86.3834,"RA_OF_ASC_NODE":358.4614,"ARG_OF_PERICENTER":355.6706,"MEAN_ANOMALY":4.4444,"EPHEMERIS_TYPE":0,"CLASSIFICATION_TYPE":"U","NORAD_CAT_ID":33777,"ELEMENT_SET_NO":999,"REV_AT_EPOCH":89762,"BSTAR":0.00077961,"MEAN_MOTION_DOT":3.473e-5,"MEAN_MOTION_DDOT":0},{"OBJECT_NAME":"IRIDIUM 33 DEB","OBJECT_ID":"1997-051T","EPOCH":"2026-03-07T01:50:58.329600","MEAN_MOTION":14.42474338,"ECCENTRICITY":0.0008874,"INCLINATION":86.3467,"RA_OF_ASC_NODE":353.9163,"ARG_OF_PERICENTER":252.0783,"MEAN_ANOMALY":167.208,"EPHEMERIS_TYPE":0,"CLASSIFICATION_TYPE":"U","NORAD_CAT_ID":33850,"ELEMENT_SET_NO":999,"REV_AT_EPOCH":89368,"BSTAR":0.00046258,"MEAN_MOTION_DOT":1.551e-5,"MEAN_MOTION_DDOT":0},{"OBJECT_NAME":"IRIDIUM 33 DEB","OBJECT_ID":"1997-051W","EPOCH":"2026-03-07T03:59:21.701760","MEAN_MOTION":13.99572226,"ECCENTRICITY":0.0210183,"INCLINATION":85.9997,"RA_OF_ASC_NODE":312.7934,"ARG_OF_PERICENTER":337.9617,"MEAN_ANOMALY":118.2918,"EPHEMERIS_TYPE":0,"CLASSIFICATION_TYPE":"U","NORAD_CAT_ID":33853,"ELEMENT_SET_NO":999,"REV_AT_EPOCH":86526,"BSTAR":0.0014822,"MEAN_MOTION_DOT":2.632e-5,"MEAN_MOTION_DDOT":0},{"OBJECT_NAME":"IRIDIUM 33 DEB","OBJECT_ID":"1997-051AD","EPOCH":"2026-03-06T07:12:13.567392","MEAN_MOTION":14.68986715,"ECCENTRICITY":0.00115973,"INCLINATION":86.3874,"RA_OF_ASC_NODE":350.2131,"ARG_OF_PERICENTER":56.8355,"MEAN_ANOMALY":61.691,"EPHEMERIS_TYPE":0,"CLASSIFICATION_TYPE":"U","NORAD_CAT_ID":33860,"ELEMENT_SET_NO":999,"REV_AT_EPOCH":89948,"BSTAR":0.0016337218,"MEAN_MOTION_DOT":9.608e-5,"MEAN_MOTION_DDOT":0},{"OBJECT_NAME":"IRIDIUM 33 DEB","OBJECT_ID":"1997-051AF","EPOCH":"2026-03-07T02:07:17.397120","MEAN_MOTION":14.71751658,"ECCENTRICITY":0.0050584,"INCLINATION":86.413,"RA_OF_ASC_NODE":0.2728,"ARG_OF_PERICENTER":132.0369,"MEAN_ANOMALY":244.9343,"EPHEMERIS_TYPE":0,"CLASSIFICATION_TYPE":"U","NORAD_CAT_ID":33862,"ELEMENT_SET_NO":999,"REV_AT_EPOCH":90063,"BSTAR":0.0020873,"MEAN_MOTION_DOT":0.00013325,"MEAN_MOTION_DDOT":0},{"OBJECT_NAME":"IRIDIUM 33 DEB","OBJECT_ID":"1997-051AK","EPOCH":"2026-03-06T22:36:58.315104","MEAN_MOTION":14.25720603,"ECCENTRICITY":0.0110683,"INCLINATION":86.2993,"RA_OF_ASC_NODE":57.3802,"ARG_OF_PERICENTER":251.5527,"MEAN_ANOMALY":167.295,"EPHEMERIS_TYPE":0,"CLASSIFICATION_TYPE":"U","NORAD_CAT_ID":33866,"ELEMENT_SET_NO":999,"REV_AT_EPOCH":88010,"BSTAR":0.0013321,"MEAN_MOTION_DOT":3.387e-5,"MEAN_MOTION_DDOT":0},{"OBJECT_NAME":"IRIDIUM 33 DEB","OBJECT_ID":"1997-051AP","EPOCH":"2026-03-06T21:24:31.633920","MEAN_MOTION":14.46381046,"ECCENTRICITY":0.0018161,"INCLINATION":86.3779,"RA_OF_ASC_NODE":22.1622,"ARG_OF_PERICENTER":264.1853,"MEAN_ANOMALY":117.4181,"EPHEMERIS_TYPE":0,"CLASSIFICATION_TYPE":"U","NORAD_CAT_ID":33870,"ELEMENT_SET_NO":999,"REV_AT_EPOCH":89353,"BSTAR":0.00093021,"MEAN_MOTION_DOT":3.364e-5,"MEAN_MOTION_DDOT":0},{"OBJECT_NAME":"IRIDIUM 33 DEB","OBJECT_ID":"1997-051BA","EPOCH":"2026-03-07T00:10:37.150752","MEAN_MOTION":14.58932417,"ECCENTRICITY":0.0052471,"INCLINATION":86.3822,"RA_OF_ASC_NODE":70.0346,"ARG_OF_PERICENTER":251.411,"MEAN_ANOMALY":135.6613,"EPHEMERIS_TYPE":0,"CLASSIFICATION_TYPE":"U","NORAD_CAT_ID":33881,"ELEMENT_SET_NO":999,"REV_AT_EPOCH":88728,"BSTAR":0.0036505,"MEAN_MOTION_DOT":0.00017487,"MEAN_MOTION_DDOT":0},{"OBJECT_NAME":"IRIDIUM 33 DEB","OBJECT_ID":"1997-051BD","EPOCH":"2026-03-07T04:33:07.932096","MEAN_MOTION":14.80189917,"ECCENTRICITY":0.0013552,"INCLINATION":86.3714,"RA_OF_ASC_NODE":331.6369,"ARG_OF_PERICENTER":25.745,"MEAN_ANOMALY":97.0143,"EPHEMERIS_TYPE":0,"CLASSIFICATION_TYPE":"U","NORAD_CAT_ID":33884,"ELEMENT_SET_NO":999,"REV_AT_EPOCH":90095,"BSTAR":0.0022887,"MEAN_MOTION_DOT":0.00017463,"MEAN_MOTION_DDOT":0},{"OBJECT_NAME":"IRIDIUM 33 DEB","OBJECT_ID":"1997-051BF","EPOCH":"2026-03-06T23:29:35.022048","MEAN_MOTION":14.36164253,"ECCENTRICITY":0.0013273,"INCLINATION":86.3842,"RA_OF_ASC_NODE":31.7462,"ARG_OF_PERICENTER":339.9442,"MEAN_ANOMALY":86.5845,"EPHEMERIS_TYPE":0,"CLASSIFICATION_TYPE":"U","NORAD_CAT_ID":33886,"ELEMENT_SET_NO":999,"REV_AT_EPOCH":89261,"BSTAR":0.00025801,"MEAN_MOTION_DOT":7.72e-6,"MEAN_MOTION_DDOT":0},{"OBJECT_NAME":"IRIDIUM 33 DEB","OBJECT_ID":"1997-051BG","EPOCH":"2026-03-07T05:05:57.266304","MEAN_MOTION":14.37321442,"ECCENTRICITY":0.0005407,"INCLINATION":86.3079,"RA_OF_ASC_NODE":327.0133,"ARG_OF_PERICENTER":344.7127,"MEAN_ANOMALY":138.7302,"EPHEMERIS_TYPE":0,"CLASSIFICATION_TYPE":"U","NORAD_CAT_ID":33887,"ELEMENT_SET_NO":999,"REV_AT_EPOCH":89378,"BSTAR":0.00016732,"MEAN_MOTION_DOT":5.19e-6,"MEAN_MOTION_DDOT":0},{"OBJECT_NAME":"IRIDIUM 33 DEB","OBJECT_ID":"1997-051BN","EPOCH":"2026-03-07T02:32:10.930848","MEAN_MOTION":14.5636062,"ECCENTRICITY":0.0015844,"INCLINATION":86.3888,"RA_OF_ASC_NODE":17.1266,"ARG_OF_PERICENTER":165.2324,"MEAN_ANOMALY":209.6891,"EPHEMERIS_TYPE":0,"CLASSIFICATION_TYPE":"U","NORAD_CAT_ID":33953,"ELEMENT_SET_NO":999,"REV_AT_EPOCH":89531,"BSTAR":0.0013425,"MEAN_MOTION_DOT":5.982e-5,"MEAN_MOTION_DDOT":0}]
